{"type": "FeatureCollection", "features": [ {"type": "Feature", "properties": {"norad_id": 34058, "name": "COSMOS 2251 DEB", "group": "cosmos-2251-debris", "lat": 44.21096449033602, "lon": -172.4833381869227, "alt_km": 1173.936432606346, "timestamp": "2025-12-16T23:36:36.591678+00:00", "meta": {"OBJECT_NAME": "COSMOS 2251 DEB", "OBJECT_ID": "1993-036JV", "EPOCH": "2025-12-16T06:32:17.539008", "MEAN_MOTION": 13.56081685, "ECCENTRICITY": 0.03777987, "INCLINATION": 73.9314, "RA_OF_ASC_NODE": 172.3863, "ARG_OF_PERICENTER": 166.9524, "MEAN_ANOMALY": 12.1207, "EPHEMERIS_TYPE": 0, "CLASSIFICATION_TYPE": "U", "NORAD_CAT_ID": 34058, "ELEMENT_SET_NO": 999, "REV_AT_EPOCH": 83190, "BSTAR": 0.00069573945, "MEAN_MOTION_DOT": 7.52e-06, "MEAN_MOTION_DDOT": 0}, "tle": {"line1": "1 34058U 93036JV  25350.27242522  .00000752  00000+0  69574-3 0  9999", "line2": "2 34058  73.9314 172.3863 0377798 166.9524  12.1207 13.56081685831900"}}, "geometry": {"type": "Point", "coordinates": [-172.4833381869227, 44.21096449033602]}}, {"type": "Feature", "properties": {"norad_id": 34059, "name": "COSMOS 2251 DEB", "group": "cosmos-2251-debris", "lat": -47.43572787188543, "lon": 160.11051395418275, "alt_km": 714.857949928316, "timestamp": "2025-12-16T23:36:36.591688+00:00", "meta": {"OBJECT_NAME": "COSMOS 2251 DEB", "OBJECT_ID": "1993-036JW", "EPOCH": "2025-12-16T06:28:43.578048", "MEAN_MOTION": 14.52968433, "ECCENTRICITY": 0.00185502, "INCLINATION": 74.0368, "RA_OF_ASC_NODE": 179.6167, "ARG_OF_PERICENTER": 256.5892, "MEAN_ANOMALY": 281.1277, "EPHEMERIS_TYPE": 0, "CLASSIFICATION_TYPE": "U", "NORAD_CAT_ID": 34059, "ELEMENT_SET_NO": 999, "REV_AT_EPOCH": 88510, "BSTAR": 0.00056553834, "MEAN_MOTION_DOT": 2.31e-05, "MEAN_MOTION_DDOT": 0}, "tle": {"line1": "1 34059U 93036JW  25350.26994882  .00002310  00000+0  56554-3 0  9998", "line2": "2 34059  74.0368 179.6167 0018550 256.5892 281.1277 14.52968433885109"}}, "geometry": {"type": "Point", "coordinates": [160.11051395418275, -47.43572787188543]}}, {"type": "Feature", "properties": {"norad_id": 34061, "name": "COSMOS 2251 DEB", "group": "cosmos-2251-debris", "lat": 68.36682077471241, "lon": 29.356705622378648, "alt_km": 760.3340353689373, "timestamp": "2025-12-16T23:36:36.591699+00:00", "meta": {"OBJECT_NAME": "COSMOS 2251 DEB", "OBJECT_ID": "1993-036JY", "EPOCH": "2025-12-16T05:33:02.554848", "MEAN_MOTION": 14.40365308, "ECCENTRICITY": 0.002065, "INCLINATION": 74.0391, "RA_OF_ASC_NODE": 256.9354, "ARG_OF_PERICENTER": 333.2667, "MEAN_ANOMALY": 191.0624, "EPHEMERIS_TYPE": 0, "CLASSIFICATION_TYPE": "U", "NORAD_CAT_ID": 34061, "ELEMENT_SET_NO": 999, "REV_AT_EPOCH": 88230, "BSTAR": 0.00031164998, "MEAN_MOTION_DOT": 9.65e-06, "MEAN_MOTION_DDOT": 0}, "tle": {"line1": "1 34061U 93036JY  25350.23127957  .00000965  00000+0  31165-3 0  9994", "line2": "2 34061  74.0391 256.9354 0020650 333.2667 191.0624 14.40365308882305"}}, "geometry": {"type": "Point", "coordinates": [29.356705622378648, 68.36682077471241]}}, {"type": "Feature", "properties": {"norad_id": 34062, "name": "COSMOS 2251 DEB", "group": "cosmos-2251-debris", "lat": 74.01495269409294, "lon": -139.36921201694705, "alt_km": 649.406760165285, "timestamp": "2025-12-16T23:36:36.591709+00:00", "meta": {"OBJECT_NAME": "COSMOS 2251 DEB", "OBJECT_ID": "1993-036JZ", "EPOCH": "2025-12-16T08:42:27.710208", "MEAN_MOTION": 14.78815611, "ECCENTRICITY": 0.00741717, "INCLINATION": 74.0272, "RA_OF_ASC_NODE": 130.909, "ARG_OF_PERICENTER": 209.2894, "MEAN_ANOMALY": 177.3848, "EPHEMERIS_TYPE": 0, "CLASSIFICATION_TYPE": "U", "NORAD_CAT_ID": 34062, "ELEMENT_SET_NO": 999, "REV_AT_EPOCH": 88649, "BSTAR": 0.001996626, "MEAN_MOTION_DOT": 0.00015383, "MEAN_MOTION_DDOT": 0}, "tle": {"line1": "1 34062U 93036JZ  25350.36282072  .00015383  00000+0  19966-2 0  9993", "line2": "2 34062  74.0272 130.9090 0074171 209.2894 177.3848 14.78815611886490"}}, "geometry": {"type": "Point", "coordinates": [-139.36921201694705, 74.01495269409294]}}, {"type": "Feature", "properties": {"norad_id": 34064, "name": "COSMOS 2251 DEB", "group": "cosmos-2251-debris", "lat": 65.61119183114411, "lon": 43.8347312972041, "alt_km": 756.0672672646997, "timestamp": "2025-12-16T23:36:36.591719+00:00", "meta": {"OBJECT_NAME": "COSMOS 2251 DEB", "OBJECT_ID": "1993-036KB", "EPOCH": "2025-12-16T05:30:15.602400", "MEAN_MOTION": 14.42351303, "ECCENTRICITY": 0.00222339, "INCLINATION": 74.033, "RA_OF_ASC_NODE": 264.3939, "ARG_OF_PERICENTER": 330.4586, "MEAN_ANOMALY": 182.353, "EPHEMERIS_TYPE": 0, "CLASSIFICATION_TYPE": "U", "NORAD_CAT_ID": 34064, "ELEMENT_SET_NO": 999, "REV_AT_EPOCH": 88192, "BSTAR": 0.00041447339, "MEAN_MOTION_DOT": 1.347e-05, "MEAN_MOTION_DDOT": 0}, "tle": {"line1": "1 34064U 93036KB  25350.22934725  .00001347  00000+0  41447-3 0  9994", "line2": "2 34064  74.0330 264.3939 0022233 330.4586 182.3530 14.42351303881929"}}, "geometry": {"type": "Point", "coordinates": [43.8347312972041, 65.61119183114411]}}, {"type": "Feature", "properties": {"norad_id": 34065, "name": "COSMOS 2251 DEB", "group": "cosmos-2251-debris", "lat": 53.274051171991054, "lon": -87.133609017214, "alt_km": 755.3873991769669, "timestamp": "2025-12-16T23:36:36.591729+00:00", "meta": {"OBJECT_NAME": "COSMOS 2251 DEB", "OBJECT_ID": "1993-036KC", "EPOCH": "2025-12-16T04:00:40.178016", "MEAN_MOTION": 14.38066451, "ECCENTRICITY": 0.0016525, "INCLINATION": 74.0355, "RA_OF_ASC_NODE": 251.8079, "ARG_OF_PERICENTER": 348.7055, "MEAN_ANOMALY": 161.6579, "EPHEMERIS_TYPE": 0, "CLASSIFICATION_TYPE": "U", "NORAD_CAT_ID": 34065, "ELEMENT_SET_NO": 999, "REV_AT_EPOCH": 88254, "BSTAR": 0.00015285438, "MEAN_MOTION_DOT": 4.37e-06, "MEAN_MOTION_DDOT": 0}, "tle": {"line1": "1 34065U 93036KC  25350.16713169  .00000437  00000+0  15285-3 0  9995", "line2": "2 34065  74.0355 251.8079 0016525 348.7055 161.6579 14.38066451882547"}}, "geometry": {"type": "Point", "coordinates": [-87.133609017214, 53.274051171991054]}}, {"type": "Feature", "properties": {"norad_id": 34070, "name": "COSMOS 2251 DEB", "group": "cosmos-2251-debris", "lat": 3.616337171950452, "lon": -73.1130573632771, "alt_km": 631.7768658386985, "timestamp": "2025-12-16T23:36:36.591739+00:00", "meta": {"OBJECT_NAME": "COSMOS 2251 DEB", "OBJECT_ID": "1993-036KH", "EPOCH": "2025-12-16T08:19:34.157568", "MEAN_MOTION": 14.77156115, "ECCENTRICITY": 0.00184451, "INCLINATION": 74.0001, "RA_OF_ASC_NODE": 109.177, "ARG_OF_PERICENTER": 225.6083, "MEAN_ANOMALY": 165.5309, "EPHEMERIS_TYPE": 0, "CLASSIFICATION_TYPE": "U", "NORAD_CAT_ID": 34070, "ELEMENT_SET_NO": 999, "REV_AT_EPOCH": 88664, "BSTAR": 0.0018602489, "MEAN_MOTION_DOT": 0.0001319, "MEAN_MOTION_DDOT": 0}, "tle": {"line1": "1 34070U 93036KH  25350.34692312  .00013190  00000+0  18602-2 0  9992", "line2": "2 34070  74.0001 109.1770 0018445 225.6083 165.5309 14.77156115886640"}}, "geometry": {"type": "Point", "coordinates": [-73.1130573632771, 3.616337171950452]}}, {"type": "Feature", "properties": {"norad_id": 34114, "name": "COSMOS 2251 DEB", "group": "cosmos-2251-debris", "lat": 63.708730639300356, "lon": 71.13576257570654, "alt_km": 672.2172323089244, "timestamp": "2025-12-16T23:36:36.591750+00:00", "meta": {"OBJECT_NAME": "COSMOS 2251 DEB", "OBJECT_ID": "1993-036KK", "EPOCH": "2025-12-16T05:28:51.189600", "MEAN_MOTION": 14.56428149, "ECCENTRICITY": 0.00475639, "INCLINATION": 74.0598, "RA_OF_ASC_NODE": 37.221, "ARG_OF_PERICENTER": 30.6192, "MEAN_ANOMALY": 38.9088, "EPHEMERIS_TYPE": 0, "CLASSIFICATION_TYPE": "U", "NORAD_CAT_ID": 34114, "ELEMENT_SET_NO": 999, "REV_AT_EPOCH": 87852, "BSTAR": 0.0010176311, "MEAN_MOTION_DOT": 4.563e-05, "MEAN_MOTION_DDOT": 0}, "tle": {"line1": "1 34114U 93036KK  25350.22837025  .00004563  00000+0  10176-2 0  9992", "line2": "2 34114  74.0598  37.2210 0047563  30.6192  38.9088 14.56428149878529"}}, "geometry": {"type": "Point", "coordinates": [71.13576257570654, 63.708730639300356]}}, {"type": "Feature", "properties": {"norad_id": 34115, "name": "COSMOS 2251 DEB", "group": "cosmos-2251-debris", "lat": 5.199065218510797, "lon": 52.07879194691063, "alt_km": 642.2824715021197, "timestamp": "2025-12-16T23:36:36.591760+00:00", "meta": {"OBJECT_NAME": "COSMOS 2251 DEB", "OBJECT_ID": "1993-036KL", "EPOCH": "2025-12-16T01:43:49.186848", "MEAN_MOTION": 14.79537377, "ECCENTRICITY": 0.00286519, "INCLINATION": 74.0065, "RA_OF_ASC_NODE": 235.3711, "ARG_OF_PERICENTER": 57.9125, "MEAN_ANOMALY": 302.4826, "EPHEMERIS_TYPE": 0, "CLASSIFICATION_TYPE": "U", "NORAD_CAT_ID": 34115, "ELEMENT_SET_NO": 999, "REV_AT_EPOCH": 89461, "BSTAR": 0.00061964847, "MEAN_MOTION_DOT": 4.637e-05, "MEAN_MOTION_DDOT": 0}, "tle": {"line1": "1 34115U 93036KL  25350.07209707  .00004637  00000+0  61965-3 0  9991", "line2": "2 34115  74.0065 235.3711 0028651  57.9125 302.4826 14.79537377894617"}}, "geometry": {"type": "Point", "coordinates": [52.07879194691063, 5.199065218510797]}}, {"type": "Feature", "properties": {"norad_id": 34116, "name": "COSMOS 2251 DEB", "group": "cosmos-2251-debris", "lat": 73.84726100940335, "lon": -86.3824349374344, "alt_km": 716.3173848414335, "timestamp": "2025-12-16T23:36:36.591770+00:00", "meta": {"OBJECT_NAME": "COSMOS 2251 DEB", "OBJECT_ID": "1993-036KM", "EPOCH": "2025-12-16T07:28:33.700224", "MEAN_MOTION": 14.52997111, "ECCENTRICITY": 0.00119416, "INCLINATION": 74.0395, "RA_OF_ASC_NODE": 176.039, "ARG_OF_PERICENTER": 252.0828, "MEAN_ANOMALY": 285.4205, "EPHEMERIS_TYPE": 0, "CLASSIFICATION_TYPE": "U", "NORAD_CAT_ID": 34116, "ELEMENT_SET_NO": 999, "REV_AT_EPOCH": 88538, "BSTAR": 0.00058410128, "MEAN_MOTION_DOT": 2.385e-05, "MEAN_MOTION_DDOT": 0}, "tle": {"line1": "1 34116U 93036KM  25350.31150116  .00002385  00000+0  58410-3 0  9997", "line2": "2 34116  74.0395 176.0390 0011941 252.0828 285.4205 14.52997111885382"}}, "geometry": {"type": "Point", "coordinates": [-86.3824349374344, 73.84726100940335]}}]}